{"type": "FeatureCollection", "features": [ {"type": "Feature", "properties": {"norad_id": 43437, "name": "SENTINEL-3B", "group": "resource", "lat": -33.05044116991167, "lon": -126.19295168154521, "alt_km": 809.3377936283268, "timestamp": "2025-12-20T09:36:01.289324+00:00", "meta": {"OBJECT_NAME": "SENTINEL-3B", "OBJECT_ID": "2018-039A", "EPOCH": "2025-12-20T01:52:15.629952", "MEAN_MOTION": 14.26736631, "ECCENTRICITY": 0.0001626, "INCLINATION": 98.6258, "RA_OF_ASC_NODE": 59.1578, "ARG_OF_PERICENTER": 94.4485, "MEAN_ANOMALY": 265.6881, "EPHEMERIS_TYPE": 0, "CLASSIFICATION_TYPE": "U", "NORAD_CAT_ID": 43437, "ELEMENT_SET_NO": 999, "REV_AT_EPOCH": 39858, "BSTAR": 5.9719e-05, "MEAN_MOTION_DOT": 1.01e-06, "MEAN_MOTION_DDOT": 0}, "tle": {"line1": "1 43437U 18039A   25354.07795868  .00000101  00000+0  59719-4 0  9997", "line2": "2 43437  98.6258  59.1578 0001626  94.4485 265.6881 14.26736631398583"}}, "geometry": {"type": "Point", "coordinates": [-126.19295168154521, -33.05044116991167]}}, {"type": "Feature", "properties": {"norad_id": 43461, "name": "GAOFEN-5 01", "group": "resource", "lat": 49.03731419179486, "lon": -52.338793975189645, "alt_km": 687.5534307920507, "timestamp": "2025-12-20T09:36:01.289334+00:00", "meta": {"OBJECT_NAME": "GAOFEN-5 01", "OBJECT_ID": "2018-043A", "EPOCH": "2025-12-20T04:26:24.959040", "MEAN_MOTION": 14.60417213, "ECCENTRICITY": 5.41e-05, "INCLINATION": 98.4336, "RA_OF_ASC_NODE": 317.2825, "ARG_OF_PERICENTER": 293.9801, "MEAN_ANOMALY": 66.1342, "EPHEMERIS_TYPE": 0, "CLASSIFICATION_TYPE": "U", "NORAD_CAT_ID": 43461, "ELEMENT_SET_NO": 999, "REV_AT_EPOCH": 40556, "BSTAR": 7.4172e-05, "MEAN_MOTION_DOT": 3.1e-06, "MEAN_MOTION_DDOT": 0}, "tle": {"line1": "1 43461U 18043A   25354.18501110  .00000310  00000+0  74172-4 0  9998", "line2": "2 43461  98.4336 317.2825 0000541 293.9801  66.1342 14.60417213405564"}}, "geometry": {"type": "Point", "coordinates": [-52.338793975189645, 49.03731419179486]}}, {"type": "Feature", "properties": {"norad_id": 43484, "name": "GAOFEN-6", "group": "resource", "lat": 49.26354301566088, "lon": -112.42825132071845, "alt_km": 635.530805405775, "timestamp": "2025-12-20T09:36:01.289344+00:00", "meta": {"OBJECT_NAME": "GAOFEN-6", "OBJECT_ID": "2018-048A", "EPOCH": "2025-12-20T04:08:07.571904", "MEAN_MOTION": 14.76579262, "ECCENTRICITY": 0.0012861, "INCLINATION": 97.803, "RA_OF_ASC_NODE": 58.19, "ARG_OF_PERICENTER": 41.7379, "MEAN_ANOMALY": 318.481, "EPHEMERIS_TYPE": 0, "CLASSIFICATION_TYPE": "U", "NORAD_CAT_ID": 43484, "ELEMENT_SET_NO": 999, "REV_AT_EPOCH": 40697, "BSTAR": 9.7697e-05, "MEAN_MOTION_DOT": 6.33e-06, "MEAN_MOTION_DDOT": 0}, "tle": {"line1": "1 43484U 18048A   25354.17230986  .00000633  00000+0  97697-4 0  9992", "line2": "2 43484  97.8030  58.1900 0012861  41.7379 318.4810 14.76579262406974"}}, "geometry": {"type": "Point", "coordinates": [-112.42825132071845, 49.26354301566088]}}, {"type": "Feature", "properties": {"norad_id": 43585, "name": "GAOFEN-11 01", "group": "resource", "lat": 40.09888281140955, "lon": -116.65530647164752, "alt_km": 417.2136181994647, "timestamp": "2025-12-20T09:36:01.289354+00:00", "meta": {"OBJECT_NAME": "GAOFEN-11 01", "OBJECT_ID": "2018-063A", "EPOCH": "2025-12-20T04:21:01.049760", "MEAN_MOTION": 15.49423648, "ECCENTRICITY": 0.0003931, "INCLINATION": 97.1561, "RA_OF_ASC_NODE": 57.0547, "ARG_OF_PERICENTER": 273.8961, "MEAN_ANOMALY": 86.1841, "EPHEMERIS_TYPE": 0, "CLASSIFICATION_TYPE": "U", "NORAD_CAT_ID": 43585, "ELEMENT_SET_NO": 999, "REV_AT_EPOCH": 41257, "BSTAR": 0.0002767, "MEAN_MOTION_DOT": 0.00015117, "MEAN_MOTION_DDOT": 0}, "tle": {"line1": "1 43585U 18063A   25354.18126215  .00015117  00000+0  27670-3 0  9997", "line2": "2 43585  97.1561  57.0547 0003931 273.8961  86.1841 15.49423648412579"}}, "geometry": {"type": "Point", "coordinates": [-116.65530647164752, 40.09888281140955]}}, {"type": "Feature", "properties": {"norad_id": 43613, "name": "ICESAT-2", "group": "resource", "lat": 13.83407376783616, "lon": -117.68980957989969, "alt_km": 482.85544876857693, "timestamp": "2025-12-20T09:36:01.289364+00:00", "meta": {"OBJECT_NAME": "ICESAT-2", "OBJECT_ID": "2018-070A", "EPOCH": "2025-12-20T03:15:13.582368", "MEAN_MOTION": 15.28225301, "ECCENTRICITY": 0.0002801, "INCLINATION": 92.0048, "RA_OF_ASC_NODE": 242.7331, "ARG_OF_PERICENTER": 120.7355, "MEAN_ANOMALY": 239.417, "EPHEMERIS_TYPE": 0, "CLASSIFICATION_TYPE": "U", "NORAD_CAT_ID": 43613, "ELEMENT_SET_NO": 999, "REV_AT_EPOCH": 40511, "BSTAR": 0.00028607, "MEAN_MOTION_DOT": 7.866e-05, "MEAN_MOTION_DDOT": 0}, "tle": {"line1": "1 43613U 18070A   25354.13557387  .00007866  00000+0  28607-3 0  9993", "line2": "2 43613  92.0048 242.7331 0002801 120.7355 239.4170 15.28225301405114"}}, "geometry": {"type": "Point", "coordinates": [-117.68980957989969, 13.83407376783616]}}, {"type": "Feature", "properties": {"norad_id": 43719, "name": "HYSIS", "group": "resource", "lat": -42.28137950188796, "lon": -130.01562106577276, "alt_km": 640.8943333932766, "timestamp": "2025-12-20T09:36:01.289374+00:00", "meta": {"OBJECT_NAME": "HYSIS", "OBJECT_ID": "2018-096A", "EPOCH": "2025-12-20T03:43:26.661216", "MEAN_MOTION": 14.78666197, "ECCENTRICITY": 0.0001051, "INCLINATION": 98.0096, "RA_OF_ASC_NODE": 57.0971, "ARG_OF_PERICENTER": 53.0013, "MEAN_ANOMALY": 307.1294, "EPHEMERIS_TYPE": 0, "CLASSIFICATION_TYPE": "U", "NORAD_CAT_ID": 43719, "ELEMENT_SET_NO": 999, "REV_AT_EPOCH": 38096, "BSTAR": 0.00020355, "MEAN_MOTION_DOT": 1.44e-05, "MEAN_MOTION_DDOT": 0}, "tle": {"line1": "1 43719U 18096A   25354.15516969  .00001440  00000+0  20355-3 0  9995", "line2": "2 43719  98.0096  57.0971 0001051  53.0013 307.1294 14.78666197380963"}}, "geometry": {"type": "Point", "coordinates": [-130.01562106577276, -42.28137950188796]}}, {"type": "Feature", "properties": {"norad_id": 43783, "name": "KAZSTSAT", "group": "resource", "lat": -50.79551330260745, "lon": 38.49042449082526, "alt_km": 571.7633295352343, "timestamp": "2025-12-20T09:36:01.289384+00:00", "meta": {"OBJECT_NAME": "KAZSTSAT", "OBJECT_ID": "2018-099AB", "EPOCH": "2025-12-20T01:49:14.151936", "MEAN_MOTION": 14.99364143, "ECCENTRICITY": 0.000598, "INCLINATION": 97.4531, "RA_OF_ASC_NODE": 28.9452, "ARG_OF_PERICENTER": 297.2395, "MEAN_ANOMALY": 62.8219, "EPHEMERIS_TYPE": 0, "CLASSIFICATION_TYPE": "U", "NORAD_CAT_ID": 43783, "ELEMENT_SET_NO": 999, "REV_AT_EPOCH": 38446, "BSTAR": 1.9936e-05, "MEAN_MOTION_DOT": 1.88e-06, "MEAN_MOTION_DDOT": 0}, "tle": {"line1": "1 43783U 18099AB  25354.07585824  .00000188  00000+0  19936-4 0  9998", "line2": "2 43783  97.4531  28.9452 0005980 297.2395  62.8219 14.99364143384462"}}, "geometry": {"type": "Point", "coordinates": [38.49042449082526, -50.79551330260745]}}, {"type": "Feature", "properties": {"norad_id": 43831, "name": "SAUDISAT 5A", "group": "resource", "lat": 6.453429109634635, "lon": 53.608822057959976, "alt_km": 485.3106665260093, "timestamp": "2025-12-20T09:36:01.289394+00:00", "meta": {"OBJECT_NAME": "SAUDISAT 5A", "OBJECT_ID": "2018-102A", "EPOCH": "2025-12-20T04:50:59.693856", "MEAN_MOTION": 15.25742191, "ECCENTRICITY": 0.0011427, "INCLINATION": 97.3346, "RA_OF_ASC_NODE": 54.2495, "ARG_OF_PERICENTER": 53.2866, "MEAN_ANOMALY": 306.942, "EPHEMERIS_TYPE": 0, "CLASSIFICATION_TYPE": "U", "NORAD_CAT_ID": 43831, "ELEMENT_SET_NO": 999, "REV_AT_EPOCH": 38836, "BSTAR": 0.00017213, "MEAN_MOTION_DOT": 4.327e-05, "MEAN_MOTION_DDOT": 0}, "tle": {"line1": "1 43831U 18102A   25354.20207979  .00004327  00000+0  17213-3 0  9998", "line2": "2 43831  97.3346  54.2495 0011427  53.2866 306.9420 15.25742191388366"}}, "geometry": {"type": "Point", "coordinates": [53.608822057959976, 6.453429109634635]}}, {"type": "Feature", "properties": {"norad_id": 43833, "name": "SAUDISAT 5B", "group": "resource", "lat": 67.44140592897739, "lon": 39.10796425702513, "alt_km": 472.86406355643885, "timestamp": "2025-12-20T09:36:01.289404+00:00", "meta": {"OBJECT_NAME": "SAUDISAT 5B", "OBJECT_ID": "2018-102C", "EPOCH": "2025-12-20T04:34:49.704384", "MEAN_MOTION": 15.26091002, "ECCENTRICITY": 0.0012156, "INCLINATION": 97.3441, "RA_OF_ASC_NODE": 56.9904, "ARG_OF_PERICENTER": 55.4432, "MEAN_ANOMALY": 304.7951, "EPHEMERIS_TYPE": 0, "CLASSIFICATION_TYPE": "U", "NORAD_CAT_ID": 43833, "ELEMENT_SET_NO": 999, "REV_AT_EPOCH": 38847, "BSTAR": 0.00016592, "MEAN_MOTION_DOT": 4.214e-05, "MEAN_MOTION_DDOT": 0}, "tle": {"line1": "1 43833U 18102C   25354.19085306  .00004214  00000+0  16592-3 0  9990", "line2": "2 43833  97.3441  56.9904 0012156  55.4432 304.7951 15.26091002388477"}}, "geometry": {"type": "Point", "coordinates": [39.10796425702513, 67.44140592897739]}}, {"type": "Feature", "properties": {"norad_id": 44622, "name": "GAOFEN-10R", "group": "resource", "lat": -78.17776281421644, "lon": 79.53403036620384, "alt_km": 630.2486267992008, "timestamp": "2025-12-20T09:36:01.289414+00:00", "meta": {"OBJECT_NAME": "GAOFEN-10R", "OBJECT_ID": "2019-066A", "EPOCH": "2025-12-20T03:34:00.149376", "MEAN_MOTION": 14.82815048, "ECCENTRICITY": 0.0007382, "INCLINATION": 98.0288, "RA_OF_ASC_NODE": 301.684, "ARG_OF_PERICENTER": 20.5597, "MEAN_ANOMALY": 339.5912, "EPHEMERIS_TYPE": 0, "CLASSIFICATION_TYPE": "U", "NORAD_CAT_ID": 44622, "ELEMENT_SET_NO": 999, "REV_AT_EPOCH": 33584, "BSTAR": 0.00013921, "MEAN_MOTION_DOT": 1.072e-05, "MEAN_MOTION_DDOT": 0}, "tle": {"line1": "1 44622U 19066A   25354.14861284  .00001072  00000+0  13921-3 0  9991", "line2": "2 44622  98.0288 301.6840 0007382  20.5597 339.5912 14.82815048335841"}}, "geometry": {"type": "Point", "coordinates": [79.53403036620384, -78.17776281421644]}}]}